NORAD_CAT_ID,EPOCH,MEAN_MOTION,ECCENTRICITY,INCLINATION,RA_OF_ASC_NODE,ARG_OF_PERICENTER,MEAN_ANOMALY,SEMIMAJOR_AXIS,PERIOD,APOGEE,PERIGEE
8740,2019-11-23 11:49:00,15.019143,0.0,97.736,61.903999999999996,0.0,18.701,6939.130783,95.87799999999999,560.993783,560.993783
8740,2019-11-23 13:25:00,15.019143,0.0,97.736,61.97,0.0,18.701,6939.130783,95.87799999999999,560.993783,560.993783
8740,2019-11-23 15:09:00,15.019143,0.0,97.736,62.041000000000004,0.0,48.701,6939.130783,95.87799999999999,560.993783,560.993783
8740,2019-11-23 17:53:00,15.019143,0.0,97.736,62.153999999999996,0.0,303.70099999999996,6939.130783,95.87799999999999,560.993783,560.993783
8740,2019-11-23 19:13:00,15.019143,0.0,97.736,62.208,0.0,243.702,6939.130783,95.87799999999999,560.993783,560.993783
8740,2019-11-23 21:30:00,15.019143,0.0,97.736,62.302,0.0,37.452,6939.130783,95.87799999999999,560.993783,560.993783
8740,2019-11-23 23:16:00,15.019143,0.0,97.736,62.375,0.0,74.952,6939.130783,95.87799999999999,560.993783,560.993783
8740,2019-11-24 01:14:00,15.019143,0.0,97.736,62.455,0.0,157.452,6939.130783,95.87799999999999,560.993783,560.993783
8740,2019-11-24 03:51:00,15.019143,0.0,97.736,62.563,0.0,26.201999999999998,6939.130783,95.87799999999999,560.993783,560.993783
8740,2019-11-24 05:26:00,15.019143,0.0,97.736,62.628,0.0,22.451999999999998,6939.130783,95.87799999999999,560.993783,560.993783
8740,2019-11-24 08:00:00,15.019143,0.0,97.73700000000001,62.733000000000004,0.0,239.952,6939.130783,95.87799999999999,560.993783,560.993783
8740,2019-11-24 09:15:00,15.019143,0.0,97.73700000000001,62.785,0.0,161.203,6939.130783,95.87799999999999,560.993783,560.993783
8740,2019-11-24 11:27:00,15.019143,0.0,97.73700000000001,62.875,0.0,296.203,6939.130783,95.87799999999999,560.993783,560.993783
8740,2019-11-24 13:07:00,15.019143,0.0,97.73700000000001,62.943999999999996,0.0,311.203,6939.130783,95.87799999999999,560.993783,560.993783
8740,2019-11-24 15:12:00,15.019143,0.0,97.73700000000001,63.028999999999996,0.0,59.953,6939.130783,95.87799999999999,560.993783,560.993783
8740,2019-11-24 17:28:00,15.019143,0.0,97.73700000000001,63.122,0.0,209.953,6939.130783,95.87799999999999,560.993783,560.993783
8740,2019-11-24 19:47:00,15.019143,0.0,97.73700000000001,63.217,0.0,11.203,6939.130783,95.87799999999999,560.993783,560.993783
8740,2019-11-24 21:57:00,15.019143,0.0,97.73700000000001,63.306000000000004,0.0,138.703,6939.130783,95.87799999999999,560.993783,560.993783
8740,2019-11-24 23:57:00,15.019143,0.0,97.73700000000001,63.388999999999996,0.0,228.704,6939.130783,95.87799999999999,560.993783,560.993783
8740,2019-11-25 01:27:00,15.019143,0.0,97.73700000000001,63.45,0.0,206.204,6939.130783,95.87799999999999,560.993783,560.993783
8740,2019-11-25 03:27:00,15.019143,0.0,97.73700000000001,63.532,0.0,296.204,6939.130783,95.87799999999999,560.993783,560.993783
8740,2019-11-25 05:40:00,15.019143,0.0,97.73700000000001,63.623000000000005,0.0,74.954,6939.130783,95.87799999999999,560.993783,560.993783
8740,2019-11-25 07:51:00,15.019143,0.0,97.73700000000001,63.713,0.0,206.204,6939.130783,95.87799999999999,560.993783,560.993783
8740,2019-11-25 09:08:00,15.019143,0.0,97.73700000000001,63.766000000000005,0.0,134.954,6939.130783,95.87799999999999,560.993783,560.993783
8740,2019-11-25 11:52:00,15.019143,0.0,97.738,63.878,0.0,29.954,6939.130783,95.87799999999999,560.993783,560.993783
8740,2019-11-25 13:46:00,15.019143,0.0,97.738,63.956,0.0,97.455,6939.130783,95.87799999999999,560.993783,560.993783
8740,2019-11-25 15:28:00,15.019143,0.0,97.738,64.02600000000001,0.0,119.955,6939.130783,95.87799999999999,560.993783,560.993783
8740,2019-11-25 17:45:00,15.019143,0.0,97.738,64.12,0.0,273.705,6939.130783,95.87799999999999,560.993783,560.993783
8740,2019-11-25 20:00:00,15.019143,0.0,97.738,64.212,0.0,59.955,6939.130783,95.87799999999999,560.993783,560.993783
8740,2019-11-25 21:22:00,15.019143,0.0,97.738,64.268,0.0,7.455,6939.130783,95.87799999999999,560.993783,560.993783
8740,2019-11-25 23:51:00,15.019143,0.0,97.738,64.37,0.0,206.205,6939.130783,95.87799999999999,560.993783,560.993783
8740,2019-11-26 01:18:00,15.019143,0.0,97.738,64.43,0.0,172.455,6939.130783,95.87799999999999,560.993783,560.993783
8740,2019-11-26 03:06:00,15.019143,0.0,97.738,64.50399999999999,0.0,217.456,6939.130783,95.87799999999999,560.993783,560.993783
