1 8740U          19327.49236111  .00000000  00000-0  00000-0 0 00000
2 8740 097.7360 61.9040 0000000 000.0000 018.7010 15.01914300000000
1 8740U          19327.55902778  .00000000  00000-0  00000-0 0 00000
2 8740 097.7360 61.9700 0000000 000.0000 018.7010 15.01914300000000
1 8740U          19327.63125000  .00000000  00000-0  00000-0 0 00000
2 8740 097.7360 62.0410 0000000 000.0000 048.7010 15.01914300000000
1 8740U          19327.74513889  .00000000  00000-0  00000-0 0 00000
2 8740 097.7360 62.1540 0000000 000.0000 303.7010 15.01914300000000
1 8740U          19327.80069444  .00000000  00000-0  00000-0 0 00000
2 8740 097.7360 62.2080 0000000 000.0000 243.7020 15.01914300000000
1 8740U          19327.89583333  .00000000  00000-0  00000-0 0 00000
2 8740 097.7360 62.3020 0000000 000.0000 037.4520 15.01914300000000
1 8740U          19327.96944444  .00000000  00000-0  00000-0 0 00000
2 8740 097.7360 62.3750 0000000 000.0000 074.9520 15.01914300000000
1 8740U          19328.05138889  .00000000  00000-0  00000-0 0 00000
2 8740 097.7360 62.4550 0000000 000.0000 157.4520 15.01914300000000
1 8740U          19328.16041667  .00000000  00000-0  00000-0 0 00000
2 8740 097.7360 62.5630 0000000 000.0000 026.2020 15.01914300000000
1 8740U          19328.22638889  .00000000  00000-0  00000-0 0 00000
2 8740 097.7360 62.6280 0000000 000.0000 022.4520 15.01914300000000
1 8740U          19328.33333333  .00000000  00000-0  00000-0 0 00000
2 8740 097.7370 62.7330 0000000 000.0000 239.9520 15.01914300000000
1 8740U          19328.38541667  .00000000  00000-0  00000-0 0 00000
2 8740 097.7370 62.7850 0000000 000.0000 161.2030 15.01914300000000
1 8740U          19328.47708333  .00000000  00000-0  00000-0 0 00000
2 8740 097.7370 62.8750 0000000 000.0000 296.2030 15.01914300000000
1 8740U          19328.54652778  .00000000  00000-0  00000-0 0 00000
2 8740 097.7370 62.9440 0000000 000.0000 311.2030 15.01914300000000
1 8740U          19328.63333333  .00000000  00000-0  00000-0 0 00000
2 8740 097.7370 63.0290 0000000 000.0000 059.9530 15.01914300000000
1 8740U          19328.72777778  .00000000  00000-0  00000-0 0 00000
2 8740 097.7370 63.1220 0000000 000.0000 209.9530 15.01914300000000
1 8740U          19328.82430556  .00000000  00000-0  00000-0 0 00000
2 8740 097.7370 63.2170 0000000 000.0000 011.2030 15.01914300000000
1 8740U          19328.91458333  .00000000  00000-0  00000-0 0 00000
2 8740 097.7370 63.3060 0000000 000.0000 138.7030 15.01914300000000
1 8740U          19328.99791667  .00000000  00000-0  00000-0 0 00000
2 8740 097.7370 63.3890 0000000 000.0000 228.7040 15.01914300000000
1 8740U          19329.06041667  .00000000  00000-0  00000-0 0 00000
2 8740 097.7370 63.4500 0000000 000.0000 206.2040 15.01914300000000
1 8740U          19329.14375000  .00000000  00000-0  00000-0 0 00000
2 8740 097.7370 63.5320 0000000 000.0000 296.2040 15.01914300000000
1 8740U          19329.23611111  .00000000  00000-0  00000-0 0 00000
2 8740 097.7370 63.6230 0000000 000.0000 074.9540 15.01914300000000
1 8740U          19329.32708333  .00000000  00000-0  00000-0 0 00000
2 8740 097.7370 63.7130 0000000 000.0000 206.2040 15.01914300000000
1 8740U          19329.38055556  .00000000  00000-0  00000-0 0 00000
2 8740 097.7370 63.7660 0000000 000.0000 134.9540 15.01914300000000
1 8740U          19329.49444444  .00000000  00000-0  00000-0 0 00000
2 8740 097.7380 63.8780 0000000 000.0000 029.9540 15.01914300000000
1 8740U          19329.57361111  .00000000  00000-0  00000-0 0 00000
2 8740 097.7380 63.9560 0000000 000.0000 097.4550 15.01914300000000
1 8740U          19329.64444444  .00000000  00000-0  00000-0 0 00000
2 8740 097.7380 64.0260 0000000 000.0000 119.9550 15.01914300000000
1 8740U          19329.73958333  .00000000  00000-0  00000-0 0 00000
2 8740 097.7380 64.1200 0000000 000.0000 273.7050 15.01914300000000
1 8740U          19329.83333333  .00000000  00000-0  00000-0 0 00000
2 8740 097.7380 64.2120 0000000 000.0000 059.9550 15.01914300000000
1 8740U          19329.89027778  .00000000  00000-0  00000-0 0 00000
2 8740 097.7380 64.2680 0000000 000.0000 007.4550 15.01914300000000
1 8740U          19329.99375000  .00000000  00000-0  00000-0 0 00000
2 8740 097.7380 64.3700 0000000 000.0000 206.2050 15.01914300000000
1 8740U          19330.05416667  .00000000  00000-0  00000-0 0 00000
2 8740 097.7380 64.4300 0000000 000.0000 172.4550 15.01914300000000
1 8740U          19330.12916667  .00000000  00000-0  00000-0 0 00000
2 8740 097.7380 64.5040 0000000 000.0000 217.4560 15.01914300000000
